STARLINK-5961           
1 56914U 23083AQ  25143.87080022  .00000016  00000+0  16240-4 0  9996
2 56914  43.0031 203.6080 0001790 274.2266  85.8371 15.02531770108229
STARLINK-5965           
1 56915U 23083AR  25143.88411359 -.00000028  00000+0  13019-4 0  9994
2 56915  43.0020 203.7087 0001154 272.8137  87.2573 15.02535030108224
STARLINK-5973           
1 56916U 23083AS  25143.45528086 -.00000575  00000+0 -27528-4 0  9992
2 56916  43.0024 205.6539 0001415 275.1813  84.8868 15.02535980108133
STARLINK-5971           
1 56917U 23083AT  25143.47525990  .00000069  00000+0  20175-4 0  9993
2 56917  43.0028 205.8037 0001404 277.1679  82.9004 15.02536593108168
STARLINK-5951           
1 56918U 23083AU  25143.86414120  .00000108  00000+0  23087-4 0  9998
2 56918  43.0023 203.5568 0001594 270.4127  89.6533 15.02531823108221
STARLINK-5966           
1 56919U 23083AV  25143.86857889  .00000266  00000+0  34748-4 0  9993
2 56919  43.0026 203.5937 0001588 269.7937  90.2723 15.02533244107427
STARLINK-5960           
1 56920U 23083AW  25143.85747773 -.00000643  00000+0 -32506-4 0  9995
2 56920  43.0022 203.5045 0001192 271.4064  88.6641 15.02531546107420
STARLINK-5958           
1 56921U 23083AX  25143.46859865  .00000658  00000+0  63755-4 0  9993
2 56921  43.0025 205.7475 0001231 264.6624  95.4078 15.02538690108164
STARLINK-5937           
1 56922U 23083AY  25143.51176756  .00000142  00000+0  25585-4 0  9998
2 56922  43.0025 205.2170 0001563 269.8187  90.2476 15.02534865107378
STARLINK-5952           
1 56923U 23083AZ  25143.86082210  .00001217  00000+0  10516-3 0  9999
2 56923  43.0029 203.5313 0001617 280.3293  79.7367 15.02535894108228
STARLINK-5731           
1 56924U 23083BA  25143.84526618  .00000256  00000+0  34024-4 0  9996
2 56924  43.0028 203.4158 0001462 270.8371  89.2304 15.02538068107427
STARLINK-5733           
1 56925U 23083BB  25143.84748354  .00000484  00000+0  50907-4 0  9991
2 56925  43.0023 203.4352 0001765 272.3616  87.7024 15.02538250107429
STARLINK-5746           
1 56926U 23083BC  25143.51842988 -.00000839  00000+0 -47013-4 0  9994
2 56926  43.0022 205.2631 0001348 269.5664  90.5024 15.02531721108178
STARLINK-5808           
1 56927U 23083BD  25142.99528101  .00000199  00000+0  29825-4 0  9992
2 56927  43.0029 118.7641 0001105 277.4160  82.6557 15.02533493109122
STARLINK-5850           
1 57049U 23088B   25143.57199434 -.00000321  00000+0 -87022-5 0  9994
2 57049  43.0040 244.3147 0001618 271.8248  88.2409 15.02532274106910
STARLINK-5845           
1 57050U 23088C   25143.95309895  .00000742  00000+0  69995-4 0  9995
2 57050  43.0032 242.0132 0001440 275.3246  84.7432 15.02536244106785
STARLINK-5839           
1 57051U 23088D   25143.75699795  .00000658  00000+0  63774-4 0  9990
2 57051  43.0027 243.1180 0000998 224.3759 135.7003 15.02531647106755
STARLINK-5860           
1 57052U 23088E   25143.56089558 -.00000604  00000+0 -29625-4 0  9990
2 57052  43.0028 244.2307 0001405 268.5604  91.5077 15.02537958106721
STARLINK-5865           
1 57053U 23088F   25143.74367255 -.00001373  00000+0 -86600-4 0  9994
2 57053  43.0030 243.0217 0001515 272.7397  87.3272 15.02542470106758
STARLINK-5881           
1 57054U 23088G   25143.66610377 -.00001005  00000+0 -59363-4 0  9990
2 57054  43.0023 243.2988 0001048 266.2466  93.8257 15.02531227106746
STARLINK-6237           
1 57055U 23088H   25143.95087595 -.00002049  00000+0 -13670-3 0  9992
2 57055  43.0036 241.9944 0001327 274.7624  85.3067 15.02532209106788
STARLINK-6353           
1 57056U 23088J   25143.73368249 -.00002270  00000+0 -15294-3 0  9997
2 57056  43.0026 242.9424 0001187 265.0870  94.9837 15.02548591106751
STARLINK-6223           
1 57057U 23088K   25143.66387835 -.00000451  00000+0 -18291-4 0  9992
2 57057  43.0023 243.2583 0001608 280.1607  79.9053 15.02531521106740
STARLINK-6217           
1 57058U 23088L   25143.60405790 -.00001380  00000+0 -87120-4 0  9997
2 57058  43.0035 243.6894 0001409 272.9727  87.0954 15.02531434106736
STARLINK-6211           
1 57059U 23088M   25143.63069870  .00000124  00000+0  24257-4 0  9991
2 57059  43.0035 243.8791 0001325 267.2754  92.7937 15.02535131106731
STARLINK-6227           
1 57060U 23088N   25143.63402987  .00000084  00000+0  21300-4 0  9994
2 57060  43.0032 243.9063 0001499 266.4678  93.5993 15.02532383106738
STARLINK-5869           
1 57061U 23088P   25143.58741308 -.00000464  00000+0 -19248-4 0  9994
2 57061  43.0087 243.5691 0001029 260.8272  99.2454 15.02538313105833
STARLINK-5536           
1 57062U 23088Q   25143.51897176 -.00000344  00000+0 -10382-4 0  9990
2 57062  43.0031 230.8837 0001499 268.1019  91.9652 15.02534240106874
STARLINK-5832           
1 57063U 23088R   25143.78020511 -.00002063  00000+0 -13783-3 0  9998
2 57063  43.0002 242.4316 0000920 278.6355  81.4383 15.02509664106766
STARLINK-5822           
1 57064U 23088S   25143.61738009  .00000217  00000+0  31133-4 0  9996
2 57064  43.0023 243.7804 0001616 265.8594  94.2064 15.02531921105759
STARLINK-5830           
1 57065U 23088T   25143.57087798 -.00000463  00000+0 -19182-4 0  9999
2 57065  43.0047 244.2858 0001479 269.0482  91.0191 15.02534944105743
STARLINK-5827           
1 57066U 23088U   25143.58408176  .00000417  00000+0  45948-4 0  9994
2 57066  43.0033 243.5397 0001657 270.5654  89.4999 15.02534210105759
STARLINK-5824           
1 57067U 23088V   25143.68052954  .00000349  00000+0  40897-4 0  9997
2 57067  43.0032 243.3908 0001384 270.9880  89.0803 15.02531976106743
STARLINK-5844           
1 57068U 23088W   25143.77685508  .00000769  00000+0  72025-4 0  9999
2 57068  43.0036 242.4044 0001411 275.0222  85.0459 15.02536338106768
STARLINK-5821           
1 57069U 23088X   25143.69743308 -.00001678  00000+0 -10913-3 0  9993
2 57069  43.0034 230.5211 0001490 273.5836  86.4836 15.02540320106728
STARLINK-5828           
1 57070U 23088Y   25143.58223885 -.00000697  00000+0 -36572-4 0  9996
2 57070  43.0022 231.3821 0001126 269.2309  90.8405 15.02532809106876
STARLINK-5834           
1 57071U 23088Z   25143.70520290  .00000527  00000+0  54103-4 0  9991
2 57071  43.0030 230.5798 0001586 279.9963  80.0700 15.02535030106726
STARLINK-5843           
1 57072U 23088AA  25143.64427743 -.00000084  00000+0  88265-5 0  9990
2 57072  43.0039 230.9841 0001502 265.6351  94.4320 15.02534675105900
STARLINK-5838           
1 57073U 23088AB  25143.58112788  .00000505  00000+0  52462-4 0  9990
2 57073  43.0034 231.3679 0001417 271.7821  88.2859 15.02534212105977
STARLINK-5773           
1 57074U 23088AC  25143.57409548 -.00000174  00000+0  21763-5 0  9997
2 57074  43.0029 243.4632 0001267 267.9475  92.1222 15.02531123106731
STARLINK-5542           
1 57075U 23088AD  25143.69299380  .00000277  00000+0  35595-4 0  9992
2 57075  43.0027 230.4911 0001440 271.7851  88.2826 15.02533505106899
STARLINK-6155           
1 57076U 23088AE  25143.70853321  .00000781  00000+0  72886-4 0  9990
2 57076  43.0039 230.6086 0001820 269.5730  90.4903 15.02534927106723
STARLINK-6194           
1 57077U 23088AF  25143.69854428 -.00002848  00000+0 -19580-3 0  9997
2 57077  43.0028 230.5312 0001272 265.7690  94.3007 15.02543959107068
STARLINK-6246           
1 57078U 23088AG  25143.64094464 -.00000295  00000+0 -67491-5 0  9999
2 57078  43.0031 230.9594 0001272 265.0443  95.0254 15.02535702106718
STARLINK-6245           
1 57079U 23088AH  25143.95335524  .00000621  00000+0  61048-4 0  9991
2 57079  43.0024 229.0050 0001387 280.9894  79.0793 15.02533861106938
STARLINK-6243           
1 57080U 23088AJ  25143.23653185 -.00000502  00000+0 -22118-4 0  9995
2 57080  43.0033 233.0824 0001314 280.1376  79.9318 15.02531174106657
STARLINK-6184           
1 57081U 23088AK  25143.95002491 -.00002257  00000+0 -15200-3 0  9995
2 57081  43.0023 228.9735 0001414 268.3358  91.7322 15.02542356106932
STARLINK-6248           
1 57082U 23088AL  25143.29183692  .00011103  00000+0  83440-3 0  9995
2 57082  43.0020 232.6343 0002126 269.5842  90.4757 15.02595108106839
STARLINK-6253           
1 57083U 23088AM  25143.54339332 -.00000750  00000+0 -40453-4 0  9994
2 57083  43.0022 231.0840 0001223 272.5239  87.5464 15.02531580106878
STARLINK-6240           
1 57084U 23088AN  25143.95113760 -.00000020  00000+0  13615-4 0  9994
2 57084  43.0018 228.9821 0001232 272.5360  87.5341 15.02535224106933
STARLINK-6232           
1 57085U 23088AP  25143.53894884  .00000004  00000+0  15367-4 0  9999
2 57085  43.0028 231.0477 0001298 270.5197  89.5497 15.02536797106878
STARLINK-6247           
1 57086U 23088AQ  25143.54893810  .00001697  00000+0  14066-3 0  9992
2 57086  43.0029 231.1239 0001153 277.9952  82.0760 15.02529779106870
STARLINK-6251           
1 57087U 23088AR  25143.53561607 -.00000324  00000+0 -89272-5 0  9999
2 57087  43.0020 231.0213 0001385 270.5360  89.5324 15.02538893106877
STARLINK-6257           
1 57088U 23088AS  25143.54561011 -.00000628  00000+0 -31439-4 0  9998
2 57088  43.0021 231.0966 0001134 280.0637  80.0077 15.02536176106872
STARLINK-6259           
1 57089U 23088AT  25143.92449630  .00000737  00000+0  69611-4 0  9995
2 57089  43.0036 228.7837 0001450 269.1979  90.8697 15.02535280106936
STARLINK-6254           
1 57090U 23088AU  25143.53451187 -.00000084  00000+0  88765-5 0  9992
2 57090  43.0030 231.0136 0001742 271.5251  88.5391 15.02533642106873
STARLINK-6262           
1 57091U 23088AV  25143.72838495 -.00004570  00000+0 -32327-3 0  9991
2 57091  43.0028 229.8862 0001352 266.1961  93.8727 15.02559390106901
STARLINK-6225           
1 57092U 23088AW  25143.73061083  .00000371  00000+0  42497-4 0  9997
2 57092  43.0022 229.9030 0001161 276.6226  83.4484 15.02537746106908
STARLINK-6229           
1 57093U 23088AX  25143.92116797  .00000914  00000+0  82736-4 0  9995
2 57093  43.0028 228.7595 0001269 274.7094  85.3603 15.02532159106939
